{
  "type": "FeatureCollection",
  "features": [
    {
      "type": "Feature",
      "properties": {
        "norad_id": 40376,
        "name": "SMAP",
        "group": "resource",
        "lat": -8.852054536946904,
        "lon": 178.93209261940382,
        "alt_km": 686.5598646270219,
        "timestamp": "2025-12-21T14:40:47.567933+00:00",
        "meta_object_name": "SMAP",
        "meta_object_id": "2015-003A",
        "meta_epoch": "2025-12-21T05:36:52.531776",
        "meta_mean_motion": 14.63354929,
        "meta_eccentricity": 0.00012259,
        "meta_inclination": 98.1288,
        "meta_ra_of_asc_node": 359.8353,
        "meta_arg_of_pericenter": 91.3876,
        "meta_mean_anomaly": 268.7467,
        "meta_ephemeris_type": 0,
        "meta_classification_type": "U",
        "meta_norad_cat_id": 40376,
        "meta_element_set_no": 999,
        "meta_rev_at_epoch": 58159,
        "meta_bstar": 9.1628183e-05,
        "meta_mean_motion_dot": 4.26e-06,
        "meta_mean_motion_ddot": 0,
        "tle_line1": "1 40376U 15003A   25355.23394134  .00000426  00000+0  91628-4 0  9999",
        "tle_line2": "2 40376  98.1288 359.8353 0001225  91.3876 268.7467 14.63354929581592"
      },
      "geometry": {
        "type": "Point",
        "coordinates": [
          178.93209261940382,
          -8.852054536946904
        ]
      }
    },
    {
      "type": "Feature",
      "properties": {
        "norad_id": 40536,
        "name": "KOMPSAT-3A",
        "group": "resource",
        "lat": -63.38702601072175,
        "lon": -13.927108583936416,
        "alt_km": 444.5236199465653,
        "timestamp": "2025-12-21T14:40:47.567943+00:00",
        "meta_object_name": "KOMPSAT-3A",
        "meta_object_id": "2015-014A",
        "meta_epoch": "2025-12-21T05:37:39.870336",
        "meta_mean_motion": 15.44233559,
        "meta_eccentricity": 0.00055002,
        "meta_inclination": 97.6794,
        "meta_ra_of_asc_node": 330.0516,
        "meta_arg_of_pericenter": 107.851,
        "meta_mean_anomaly": 252.3338,
        "meta_ephemeris_type": 0,
        "meta_classification_type": "U",
        "meta_norad_cat_id": 40536,
        "meta_element_set_no": 999,
        "meta_rev_at_epoch": 59426,
        "meta_bstar": 0.00034158775,
        "meta_mean_motion_dot": 0.00015617,
        "meta_mean_motion_ddot": 0,
        "tle_line1": "1 40536U 15014A   25355.23448924  .00015617  00000+0  34159-3 0  9999",
        "tle_line2": "2 40536  97.6794 330.0516 0005500 107.8510 252.3338 15.44233559594265"
      },
      "geometry": {
        "type": "Point",
        "coordinates": [
          -13.927108583936416,
          -63.38702601072175
        ]
      }
    },
    {
      "type": "Feature",
      "properties": {
        "norad_id": 40697,
        "name": "SENTINEL-2A",
        "group": "resource",
        "lat": 77.10781082115409,
        "lon": -70.74398591982383,
        "alt_km": 780.9894150474047,
        "timestamp": "2025-12-21T14:40:47.567953+00:00",
        "meta_object_name": "SENTINEL-2A",
        "meta_object_id": "2015-028A",
        "meta_epoch": "2025-12-21T07:30:09.516096",
        "meta_mean_motion": 14.30808877,
        "meta_eccentricity": 0.0001087,
        "meta_inclination": 98.5743,
        "meta_ra_of_asc_node": 67.725,
        "meta_arg_of_pericenter": 89.2441,
        "meta_mean_anomaly": 270.8867,
        "meta_ephemeris_type": 0,
        "meta_classification_type": "U",
        "meta_norad_cat_id": 40697,
        "meta_element_set_no": 999,
        "meta_rev_at_epoch": 54829,
        "meta_bstar": 9.8810117e-05,
        "meta_mean_motion_dot": 2.15e-06,
        "meta_mean_motion_ddot": 0,
        "tle_line1": "1 40697U 15028A   25355.31261014  .00000215  00000+0  98810-4 0  9997",
        "tle_line2": "2 40697  98.5743  67.7250 0001087  89.2441 270.8867 14.30808877548297"
      },
      "geometry": {
        "type": "Point",
        "coordinates": [
          -70.74398591982383,
          77.10781082115409
        ]
      }
    },
    {
      "type": "Feature",
      "properties": {
        "norad_id": 40701,
        "name": "GAOFEN-8",
        "group": "resource",
        "lat": -13.63031484362051,
        "lon": 176.0628858563757,
        "alt_km": 458.70591734829304,
        "timestamp": "2025-12-21T14:40:47.567963+00:00",
        "meta_object_name": "GAOFEN-8",
        "meta_object_id": "2015-030A",
        "meta_epoch": "2025-12-21T06:56:10.593600",
        "meta_mean_motion": 15.38802265,
        "meta_eccentricity": 0.00120319,
        "meta_inclination": 97.6906,
        "meta_ra_of_asc_node": 173.8467,
        "meta_arg_of_pericenter": 109.7052,
        "meta_mean_anomaly": 250.5491,
        "meta_ephemeris_type": 0,
        "meta_classification_type": "U",
        "meta_norad_cat_id": 40701,
        "meta_element_set_no": 999,
        "meta_rev_at_epoch": 58402,
        "meta_bstar": 7.6639679e-05,
        "meta_mean_motion_dot": 2.856e-05,
        "meta_mean_motion_ddot": 0,
        "tle_line1": "1 40701U 15030A   25355.28901150  .00002856  00000+0  76640-4 0  9994",
        "tle_line2": "2 40701  97.6906 173.8467 0012031 109.7052 250.5491 15.38802265584023"
      },
      "geometry": {
        "type": "Point",
        "coordinates": [
          176.0628858563757,
          -13.63031484362051
        ]
      }
    },
    {
      "type": "Feature",
      "properties": {
        "norad_id": 40718,
        "name": "CARBONITE 1 (CBNT-1)",
        "group": "resource",
        "lat": -64.68099804446692,
        "lon": -167.25417500176258,
        "alt_km": 636.0565650468952,
        "timestamp": "2025-12-21T14:40:47.567973+00:00",
        "meta_object_name": "CARBONITE 1 (CBNT-1)",
        "meta_object_id": "2015-032D",
        "meta_epoch": "2025-12-21T06:52:44.788800",
        "meta_mean_motion": 14.82781051,
        "meta_eccentricity": 0.00150095,
        "meta_inclination": 97.6396,
        "meta_ra_of_asc_node": 175.9537,
        "meta_arg_of_pericenter": 153.3689,
        "meta_mean_anomaly": 206.8299,
        "meta_ephemeris_type": 0,
        "meta_classification_type": "U",
        "meta_norad_cat_id": 40718,
        "meta_element_set_no": 999,
        "meta_rev_at_epoch": 56297,
        "meta_bstar": 0.00021625411,
        "meta_mean_motion_dot": 1.701e-05,
        "meta_mean_motion_ddot": 0,
        "tle_line1": "1 40718U 15032D   25355.28662950  .00001701  00000+0  21625-3 0  9996",
        "tle_line2": "2 40718  97.6396 175.9537 0015009 153.3689 206.8299 14.82781051562971"
      },
      "geometry": {
        "type": "Point",
        "coordinates": [
          -167.25417500176258,
          -64.68099804446692
        ]
      }
    },
    {
      "type": "Feature",
      "properties": {
        "norad_id": 40878,
        "name": "YAOGAN-27",
        "group": "resource",
        "lat": 73.33831650999477,
        "lon": -51.72173726231118,
        "alt_km": 1198.3966019581221,
        "timestamp": "2025-12-21T14:40:47.567983+00:00",
        "meta_object_name": "YAOGAN-27",
        "meta_object_id": "2015-040A",
        "meta_epoch": "2025-12-21T06:59:35.719296",
        "meta_mean_motion": 13.16059596,
        "meta_eccentricity": 0.00075896,
        "meta_inclination": 100.1006,
        "meta_ra_of_asc_node": 344.5246,
        "meta_arg_of_pericenter": 265.692,
        "meta_mean_anomaly": 94.3327,
        "meta_ephemeris_type": 0,
        "meta_classification_type": "U",
        "meta_norad_cat_id": 40878,
        "meta_element_set_no": 999,
        "meta_rev_at_epoch": 49426,
        "meta_bstar": -0.00075417195,
        "meta_mean_motion_dot": -3.29e-06,
        "meta_mean_motion_ddot": 0,
        "tle_line1": "1 40878U 15040A   25355.29138564 -.00000329  00000+0 -75417-3 0  9997",
        "tle_line2": "2 40878 100.1006 344.5246 0007589 265.6920  94.3327 13.16059596494262"
      },
      "geometry": {
        "type": "Point",
        "coordinates": [
          -51.72173726231118,
          73.33831650999477
        ]
      }
    },
    {
      "type": "Feature",
      "properties": {
        "norad_id": 40894,
        "name": "GAOFEN-9 01",
        "group": "resource",
        "lat": -24.17440165001346,
        "lon": -149.27672060307066,
        "alt_km": 645.5743676954526,
        "timestamp": "2025-12-21T14:40:47.567993+00:00",
        "meta_object_name": "GAOFEN-9 01",
        "meta_object_id": "2015-047A",
        "meta_epoch": "2025-12-21T05:39:40.074336",
        "meta_mean_motion": 14.82441013,
        "meta_eccentricity": 0.00276993,
        "meta_inclination": 97.6531,
        "meta_ra_of_asc_node": 33.8241,
        "meta_arg_of_pericenter": 6.9453,
        "meta_mean_anomaly": 353.2139,
        "meta_ephemeris_type": 0,
        "meta_classification_type": "U",
        "meta_norad_cat_id": 40894,
        "meta_element_set_no": 999,
        "meta_rev_at_epoch": 55382,
        "meta_bstar": 0.00010258619,
        "meta_mean_motion_dot": 7.76e-06,
        "meta_mean_motion_ddot": 0,
        "tle_line1": "1 40894U 15047A   25355.23588049  .00000776  00000+0  10259-3 0  9990",
        "tle_line2": "2 40894  97.6531  33.8241 0027699   6.9453 353.2139 14.82441013553826"
      },
      "geometry": {
        "type": "Point",
        "coordinates": [
          -149.27672060307066,
          -24.17440165001346
        ]
      }
    }
  ]
}